NORAD_CAT_ID,OBJECT_NAME,OBJECT_TYPE,EPOCH,MEAN_MOTION,ECCENTRICITY,INCLINATION,RA_OF_ASC_NODE,ARG_OF_PERICENTER,MEAN_ANOMALY,BSTAR,MEAN_MOTION_DOT,MEAN_MOTION_DDOT,TLE_LINE0,TLE_LINE1,TLE_LINE2,SEMIMAJOR_AXIS,PERIOD,APOGEE,PERIGEE,DECAYED
52858.0,STARLINK-4198,PAYLOAD,2023-11-23 19:33:43,15.08836764,0.0001581,53.2167,181.0192,120.549,239.5658,0.00014087,1.954e-05,0.0,0 STARLINK-4198,1 52858U 22062AE  23327.81508924  .00001954  00000-0  14087-3 0  9996,2 52858  53.2167 181.0192 0001581 120.5490 239.5658 15.08836764 80073,6917.89,95.438,540.849,538.662,0.0
52858.0,STARLINK-4198,PAYLOAD,2023-11-23 21:09:07,15.08831641,0.0001516,53.2165,180.7216,93.1331,266.9835,0.0002047,2.971e-05,0.0,0 STARLINK-4198,1 52858U 22062AE  23327.88133344  .00002971  00000-0  20470-3 0  9996,2 52858  53.2165 180.7216 0001516  93.1331 266.9835 15.08831641 79596,6917.906,95.438,540.82,538.722,0.0
52858.0,STARLINK-4198,PAYLOAD,2023-11-24 14:38:21,15.08838982,0.0001547,53.2162,177.4511,98.2651,261.8516,5.0833e-05,5.21e-06,0.0,0 STARLINK-4198,1 52858U 22062AE  23328.60997141  .00000521  00000-0  50833-4 0  9996,2 52858  53.2162 177.4511 0001547  98.2651 261.8516 15.08838982 79707,6917.884,95.438,540.819,538.678,0.0
52858.0,STARLINK-4198,PAYLOAD,2023-11-24 20:59:53,15.08842052,0.0001459,53.2167,176.2621,93.8232,266.2927,5.6451e-05,6.11e-06,0.0,0 STARLINK-4198,1 52858U 22062AE  23328.87492989  .00000611  00000-0  56451-4 0  9997,2 52858  53.2167 176.2621 0001459  93.8232 266.2927 15.08842052 79741,6917.874,95.437,540.748,538.73,0.0
52858.0,STARLINK-4198,PAYLOAD,2023-11-25 00:10:40,15.08845054,0.0001519,53.2169,175.6728,110.6041,249.5114,1.81e-05,0.0,0.0,0 STARLINK-4198,1 52858U 22062AE  23329.00740867  .00000000  00000-0  18100-4 0  9995,2 52858  53.2169 175.6728 0001519 110.6041 249.5114 15.08845054 80252,6917.865,95.437,540.781,538.679,0.0
52858.0,STARLINK-4198,PAYLOAD,2023-11-25 20:50:40,15.08848391,0.0001482,53.2169,171.8073,103.7756,256.3401,0.00019764,2.86e-05,0.0,0 STARLINK-4198,1 52858U 22062AE  23329.86852436  .00002860  00000-0  19764-3 0  9997,2 52858  53.2169 171.8073 0001482 103.7756 256.3401 15.08848391 79898,6917.855,95.437,540.745,538.695,0.0
52858.0,STARLINK-4198,PAYLOAD,2023-11-26 12:44:32,15.08844056,0.0001653,53.2164,168.8368,110.3758,249.7412,6.5511e-05,7.55e-06,0.0,0 STARLINK-4198,1 52858U 22062AE  23330.53092609  .00000755  00000-0  65511-4 0  9994,2 52858  53.2164 168.8368 0001653 110.3758 249.7412 15.08844056 79995,6917.868,95.437,540.877,538.589,0.0
52858.0,STARLINK-4198,PAYLOAD,2023-11-26 19:06:04,15.08839878,0.0001532,53.2164,167.6447,103.8124,256.3038,1.1902e-06,-2.69e-06,0.0,0 STARLINK-4198,1 52858U 22062AE  23330.79588835 -.00000269  00000-0  11902-5 0  9990,2 52858  53.2164 167.6447 0001532 103.8124 256.3038 15.08839878 80525,6917.881,95.438,540.806,538.686,0.0
52858.0,STARLINK-4198,PAYLOAD,2023-11-26 20:41:28,15.08838674,0.0001458,53.2173,167.3474,101.1624,258.9532,3.8516e-05,3.25e-06,0.0,0 STARLINK-4198,1 52858U 22062AE  23330.86213207  .00000325  00000-0  38516-4 0  9997,2 52858  53.2173 167.3474 0001458 101.1624 258.9532 15.08838674 80042,6917.884,95.438,540.758,538.741,0.0
52858.0,STARLINK-4198,PAYLOAD,2023-11-26 23:52:14,15.08837733,0.0001444,53.2173,166.753,98.3535,261.7621,2.5624e-05,1.2e-06,0.0,0 STARLINK-4198,1 52858U 22062AE  23330.99461306  .00000120  00000-0  25624-4 0  9995,2 52858  53.2173 166.7530 0001444  98.3535 261.7621 15.08837733 80069,6917.887,95.438,540.751,538.753,0.0
52858.0,STARLINK-4198,PAYLOAD,2023-11-27 18:56:52,15.08837221,0.0001511,53.2174,163.1848,97.7485,262.3679,-9.6296e-06,-4.41e-06,0.0,0 STARLINK-4198,1 52858U 22062AE  23331.78949558 -.00000441  00000-0 -96296-5 0  9995,2 52858  53.2174 163.1848 0001511  97.7485 262.3679 15.08837221 80674,6917.889,95.438,540.799,538.709,0.0
52858.0,STARLINK-4198,PAYLOAD,2023-11-28 12:26:06,15.08837408,0.0001435,53.217,159.9135,91.1949,268.9208,7.401e-05,8.9e-06,0.0,0 STARLINK-4198,1 52858U 22062AE  23332.51813421  .00000890  00000-0  74010-4 0  9991,2 52858  53.2170 159.9135 0001435  91.1949 268.9208 15.08837408 80295,6917.888,95.438,540.746,538.761,0.0
52858.0,STARLINK-4198,PAYLOAD,2023-11-28 20:23:02,15.08841078,0.000137,53.217,158.4271,89.8361,270.2788,0.00010022,1.307e-05,0.0,0 STARLINK-4198,1 52858U 22062AE  23332.84933162  .00001307  00000-0  10022-3 0  9998,2 52858  53.2170 158.4271 0001370  89.8361 270.2788 15.08841078 80837,6917.877,95.437,540.69,538.794,0.0
52858.0,STARLINK-4198,PAYLOAD,2023-11-29 12:16:53,15.0884034,0.0001468,53.2175,155.455,67.9554,292.1594,0.00012973,1.777e-05,0.0,0 STARLINK-4198,1 52858U 22062AE  23333.51173272  .00001777  00000-0  12973-3 0  9999,2 52858  53.2175 155.4550 0001468  67.9554 292.1594 15.08840340 80444,6917.879,95.438,540.76,538.729,0.0
52858.0,STARLINK-4198,PAYLOAD,2023-11-30 18:29:13,15.08845048,0.0001,53.2182,149.8067,79.2167,280.8938,4.0766e-05,3.61e-06,0.0,0 STARLINK-4198,1 52858U 22062AE  23334.77029081  .00000361  00000-0  40766-4 0  9996,2 52858  53.2182 149.8067 0001000  79.2167 280.8938 15.08845048 81122,6917.865,95.437,540.422,539.038,0.0
52858.0,STARLINK-4198,PAYLOAD,2023-12-01 18:20:00,15.08845976,0.0001168,53.2182,145.345,83.5242,276.5883,3.0709e-05,2.01e-06,0.0,0 STARLINK-4198,1 52858U 22062AE  23335.76388916  .00000201  00000-0  30709-4 0  9990,2 52858  53.2182 145.3450 0001168  83.5242 276.5883 15.08845976 80788,6917.862,95.437,540.535,538.919,0.0
52858.0,STARLINK-4198,PAYLOAD,2023-12-02 11:49:12,15.08861776,0.0001317,53.2181,142.0745,99.4398,260.6743,0.00022345,3.272e-05,0.0,0 STARLINK-4198,1 52858U 22062AE  23336.49250753  .00003272  00000-0  22345-3 0  9995,2 52858  53.2181 142.0745 0001317  99.4398 260.6743 15.08861776 81384,6917.814,95.436,540.59,538.768,0.0
52858.0,STARLINK-4198,PAYLOAD,2023-12-02 18:10:47,15.08822665,0.0001462,53.2179,140.8823,93.8835,266.2324,-0.00010136,-1.9e-05,0.0,0 STARLINK-4198,1 52858U 22062AE  23336.75749909 -.00001900  00000-0 -10136-3 0  9993,2 52858  53.2179 140.8823 0001462  93.8835 266.2324 15.08822665 81425,6917.933,95.439,540.81,538.787,0.0
52858.0,STARLINK-4198,PAYLOAD,2023-12-03 11:40:02,15.08884056,0.0002466,53.2176,137.6069,143.6956,216.4204,-0.00088083,-0.00014297,0.0,0 STARLINK-4198,1 52858U 22062AE  23337.48613666 -.00014297  00000-0 -88083-3 0  9993,2 52858  53.2176 137.6069 0002466 143.6956 216.4204 15.08884056 81539,6917.746,95.435,541.317,537.905,0.0
52858.0,STARLINK-4198,PAYLOAD,2023-12-03 16:26:12,15.08826187,0.0001442,53.2174,136.7171,99.4759,260.6396,-8.3788e-05,-1.621e-05,0.0,0 STARLINK-4198,1 52858U 22062AE  23337.68486350 -.00001621  00000-0 -83788-4 0  9998,2 52858  53.2174 136.7171 0001442  99.4759 260.6396 15.08826187 81560,6917.923,95.438,540.785,538.79,0.0
52858.0,STARLINK-4198,PAYLOAD,2023-12-05 09:46:13,15.08840714,0.0001347,53.2176,128.9848,111.4515,248.6621,4.4608e-05,4.22e-06,0.0,0 STARLINK-4198,1 52858U 22062AE  23339.40709665  .00000422  00000-0  44608-4 0  9991,2 52858  53.2176 128.9848 0001347 111.4515 248.6621 15.08840714 81823,6917.878,95.438,540.675,538.811,0.0
52858.0,STARLINK-4198,PAYLOAD,2023-12-05 19:18:31,15.08845798,0.0001355,53.2178,127.2086,78.3656,281.7488,0.0002111,3.074e-05,0.0,0 STARLINK-4198,1 52858U 22062AE  23339.80453260  .00003074  00000-0  21110-3 0  9990,2 52858  53.2178 127.2086 0001355  78.3656 281.7488 15.08845798 81395,6917.863,95.437,540.665,538.79,0.0
52858.0,STARLINK-4198,PAYLOAD,2023-12-06 09:36:59,15.08841943,0.0001482,53.2186,124.5329,98.5691,261.5469,5.0593e-05,5.17e-06,0.0,0 STARLINK-4198,1 52858U 22062AE  23340.40069342  .00000517  00000-0  50593-4 0  9999,2 52858  53.2186 124.5329 0001482  98.5691 261.5469 15.08841943 81481,6917.874,95.437,540.765,538.714,0.0
52858.0,STARLINK-4198,PAYLOAD,2023-12-07 19:00:06,15.08836795,0.0002257,53.2177,118.285,97.6962,262.4287,7.4341e-05,8.95e-06,0.0,0 STARLINK-4198,1 52858U 22062AE  23341.79174261  .00000895  00000-0  74341-4 0  9995,2 52858  53.2177 118.2850 0002257  97.6962 262.4287 15.08836795 82187,6917.89,95.438,541.317,538.194,0.0
52858.0,STARLINK-4198,PAYLOAD,2023-12-08 12:29:20,15.08836607,0.0002061,53.2177,115.0124,115.8372,244.2832,2.627e-05,1.3e-06,0.0,0 STARLINK-4198,1 52858U 22062AE  23342.52038087  .00000130  00000-0  26270-4 0  9992,2 52858  53.2177 115.0124 0002061 115.8372 244.2832 15.08836607 81801,6917.891,95.438,541.182,538.33,0.0
52858.0,STARLINK-4198,PAYLOAD,2023-12-09 09:09:21,15.08832492,0.0001272,53.2172,111.1464,93.2443,266.8695,5.0357e-05,5.14e-06,0.0,0 STARLINK-4198,1 52858U 22062AE  23343.38150041  .00000514  00000-0  50357-4 0  9991,2 52858  53.2172 111.1464 0001272  93.2443 266.8695 15.08832492 82425,6917.903,95.438,540.648,538.888,0.0
52858.0,STARLINK-4198,PAYLOAD,2023-12-09 12:20:07,15.0883362,0.0001245,53.2173,110.5524,89.612,270.5015,5.9456e-05,6.58e-06,0.0,0 STARLINK-4198,1 52858U 22062AE  23343.51397995  .00000658  00000-0  59456-4 0  9995,2 52858  53.2173 110.5524 0001245  89.6120 270.5015 15.08833620 81956,6917.9,95.438,540.626,538.904,0.0
52858.0,STARLINK-4198,PAYLOAD,2023-12-09 18:41:40,15.08836228,0.0001344,53.2169,109.3615,102.4022,257.7121,6.8095e-05,7.96e-06,0.0,0 STARLINK-4198,1 52858U 22062AE  23343.77893848  .00000796  00000-0  68095-4 0  9993,2 52858  53.2169 109.3615 0001344 102.4022 257.7121 15.08836228 81999,6917.892,95.438,540.687,538.827,0.0
52858.0,STARLINK-4198,PAYLOAD,2023-12-10 12:10:55,15.08834498,0.0001441,53.2163,106.0906,111.926,248.1885,5.5898e-05,6.02e-06,0.0,0 STARLINK-4198,1 52858U 22062AE  23344.50758205  .00000602  00000-0  55898-4 0  9995,2 52858  53.2163 106.0906 0001441 111.9260 248.1885 15.08834498 82592,6917.897,95.438,540.759,538.765,0.0
52858.0,STARLINK-4198,PAYLOAD,2023-12-10 13:46:18,15.08835613,0.0001404,53.2165,105.7934,107.677,252.4376,6.2436e-05,7.06e-06,0.0,0 STARLINK-4198,1 52858U 22062AE  23344.57382158  .00000706  00000-0  62436-4 0  9993,2 52858  53.2165 105.7934 0001404 107.6770 252.4376 15.08835613 82119,6917.894,95.438,540.73,538.788,0.0
